CCSDS_OMM_VERS = 2.0
CREATION_DATE  = 
ORIGINATOR     = 

OBJECT_NAME    = STARLINK-36602
OBJECT_ID      = 2026-033AE
CENTER_NAME    = EARTH
REF_FRAME      = TEME
TIME_SYSTEM    = UTC
MEAN_ELEMENT_THEORY = SGP/SGP4

EPOCH          = 2026-03-12T22:00:01.999584
MEAN_MOTION    = 15.69985334
ECCENTRICITY   = .0001593
INCLINATION    = 42.9995
RA_OF_ASC_NODE = 251.6264
ARG_OF_PERICENTER = 280.5612
MEAN_ANOMALY   = 143.2147

EPHEMERIS_TYPE = 0
CLASSIFICATION_TYPE = U
NORAD_CAT_ID   = 67849
ELEMENT_SET_NO = 999
REV_AT_EPOCH   = 518
BSTAR          = -.172681E-1
MEAN_MOTION_DOT = -.1897934E-1
MEAN_MOTION_DDOT = 0

CCSDS_OMM_VERS = 2.0
CREATION_DATE  = 
ORIGINATOR     = 

OBJECT_NAME    = STARLINK-36840
OBJECT_ID      = 2026-034A
CENTER_NAME    = EARTH
REF_FRAME      = TEME
TIME_SYSTEM    = UTC
MEAN_ELEMENT_THEORY = SGP/SGP4

EPOCH          = 2026-03-12T22:56:22.971552
MEAN_MOTION    = 15.80892130
ECCENTRICITY   = .00017088
INCLINATION    = 53.1582
RA_OF_ASC_NODE = 194.9902
ARG_OF_PERICENTER = 49.7018
MEAN_ANOMALY   = 310.4154

EPHEMERIS_TYPE = 0
CLASSIFICATION_TYPE = U
NORAD_CAT_ID   = 67850
ELEMENT_SET_NO = 999
REV_AT_EPOCH   = 445
BSTAR          = .44602175E-3
MEAN_MOTION_DOT = .88316E-3
MEAN_MOTION_DDOT = 0

CCSDS_OMM_VERS = 2.0
CREATION_DATE  = 
ORIGINATOR     = 

OBJECT_NAME    = STARLINK-36348
OBJECT_ID      = 2026-034B
CENTER_NAME    = EARTH
REF_FRAME      = TEME
TIME_SYSTEM    = UTC
MEAN_ELEMENT_THEORY = SGP/SGP4

EPOCH          = 2026-03-12T22:55:17.876928
MEAN_MOTION    = 15.80934226
ECCENTRICITY   = .00009109
INCLINATION    = 53.1584
RA_OF_ASC_NODE = 194.9845
ARG_OF_PERICENTER = 65.9242
MEAN_ANOMALY   = 294.1876

EPHEMERIS_TYPE = 0
CLASSIFICATION_TYPE = U
NORAD_CAT_ID   = 67851
ELEMENT_SET_NO = 999
REV_AT_EPOCH   = 445
BSTAR          = .69570982E-3
MEAN_MOTION_DOT = .139239E-2
MEAN_MOTION_DDOT = 0

CCSDS_OMM_VERS = 2.0
CREATION_DATE  = 
ORIGINATOR     = 

OBJECT_NAME    = STARLINK-36276
OBJECT_ID      = 2026-034C
CENTER_NAME    = EARTH
REF_FRAME      = TEME
TIME_SYSTEM    = UTC
MEAN_ELEMENT_THEORY = SGP/SGP4

EPOCH          = 2026-03-12T21:23:10.619232
MEAN_MOTION    = 15.81010492
ECCENTRICITY   = .00013498
INCLINATION    = 53.1580
RA_OF_ASC_NODE = 195.2950
ARG_OF_PERICENTER = 43.4758
MEAN_ANOMALY   = 316.6371

EPHEMERIS_TYPE = 0
CLASSIFICATION_TYPE = U
NORAD_CAT_ID   = 67852
ELEMENT_SET_NO = 999
REV_AT_EPOCH   = 444
BSTAR          = .14121798E-2
MEAN_MOTION_DOT = .28939E-2
MEAN_MOTION_DDOT = 0

CCSDS_OMM_VERS = 2.0
CREATION_DATE  = 
ORIGINATOR     = 

OBJECT_NAME    = STARLINK-36785
OBJECT_ID      = 2026-034D
CENTER_NAME    = EARTH
REF_FRAME      = TEME
TIME_SYSTEM    = UTC
MEAN_ELEMENT_THEORY = SGP/SGP4

EPOCH          = 2026-03-12T22:53:08.538720
MEAN_MOTION    = 15.80945494
ECCENTRICITY   = .00018926
INCLINATION    = 53.1583
RA_OF_ASC_NODE = 194.9742
ARG_OF_PERICENTER = 45.2124
MEAN_ANOMALY   = 314.9052

EPHEMERIS_TYPE = 0
CLASSIFICATION_TYPE = U
NORAD_CAT_ID   = 67853
ELEMENT_SET_NO = 999
REV_AT_EPOCH   = 445
BSTAR          = .10364893E-2
MEAN_MOTION_DOT = .209615E-2
MEAN_MOTION_DDOT = 0

CCSDS_OMM_VERS = 2.0
CREATION_DATE  = 
ORIGINATOR     = 

OBJECT_NAME    = STARLINK-36608
OBJECT_ID      = 2026-034E
CENTER_NAME    = EARTH
REF_FRAME      = TEME
TIME_SYSTEM    = UTC
MEAN_ELEMENT_THEORY = SGP/SGP4

EPOCH          = 2026-03-12T21:21:01.240416
MEAN_MOTION    = 15.80993913
ECCENTRICITY   = .00014535
INCLINATION    = 53.1582
RA_OF_ASC_NODE = 195.2855
ARG_OF_PERICENTER = 44.7600
MEAN_ANOMALY   = 315.3540

EPHEMERIS_TYPE = 0
CLASSIFICATION_TYPE = U
NORAD_CAT_ID   = 67854
ELEMENT_SET_NO = 999
REV_AT_EPOCH   = 443
BSTAR          = .14132477E-2
MEAN_MOTION_DOT = .289388E-2
MEAN_MOTION_DDOT = 0

CCSDS_OMM_VERS = 2.0
CREATION_DATE  = 
ORIGINATOR     = 

OBJECT_NAME    = STARLINK-36838
OBJECT_ID      = 2026-034F
CENTER_NAME    = EARTH
REF_FRAME      = TEME
TIME_SYSTEM    = UTC
MEAN_ELEMENT_THEORY = SGP/SGP4

EPOCH          = 2026-03-12T21:19:56.217504
MEAN_MOTION    = 15.80994848
ECCENTRICITY   = .00014398
INCLINATION    = 53.1584
RA_OF_ASC_NODE = 195.2799
ARG_OF_PERICENTER = 43.5872
MEAN_ANOMALY   = 316.5264

EPHEMERIS_TYPE = 0
CLASSIFICATION_TYPE = U
NORAD_CAT_ID   = 67855
ELEMENT_SET_NO = 999
REV_AT_EPOCH   = 444
BSTAR          = .12804354E-2
MEAN_MOTION_DOT = .261276E-2
MEAN_MOTION_DDOT = 0

CCSDS_OMM_VERS = 2.0
CREATION_DATE  = 
ORIGINATOR     = 

OBJECT_NAME    = STARLINK-36843
OBJECT_ID      = 2026-034G
CENTER_NAME    = EARTH
REF_FRAME      = TEME
TIME_SYSTEM    = UTC
MEAN_ELEMENT_THEORY = SGP/SGP4

EPOCH          = 2026-03-12T19:46:44.561568
MEAN_MOTION    = 15.80995331
ECCENTRICITY   = .00012216
INCLINATION    = 53.1582
RA_OF_ASC_NODE = 195.5877
ARG_OF_PERICENTER = 50.5751
MEAN_ANOMALY   = 309.5380

EPHEMERIS_TYPE = 0
CLASSIFICATION_TYPE = U
NORAD_CAT_ID   = 67856
ELEMENT_SET_NO = 999
REV_AT_EPOCH   = 443
BSTAR          = .12755648E-2
MEAN_MOTION_DOT = .260254E-2
MEAN_MOTION_DDOT = 0

CCSDS_OMM_VERS = 2.0
CREATION_DATE  = 
ORIGINATOR     = 

OBJECT_NAME    = STARLINK-36828
OBJECT_ID      = 2026-034H
CENTER_NAME    = EARTH
REF_FRAME      = TEME
TIME_SYSTEM    = UTC
MEAN_ELEMENT_THEORY = SGP/SGP4

EPOCH          = 2026-03-12T19:47:49.231104
MEAN_MOTION    = 15.80997775
ECCENTRICITY   = .00008348
INCLINATION    = 53.1582
RA_OF_ASC_NODE = 195.5927
ARG_OF_PERICENTER = 62.3321
MEAN_ANOMALY   = 297.7787

EPHEMERIS_TYPE = 0
CLASSIFICATION_TYPE = U
NORAD_CAT_ID   = 67857
ELEMENT_SET_NO = 999
REV_AT_EPOCH   = 443
BSTAR          = .12791081E-2
MEAN_MOTION_DOT = .261035E-2
MEAN_MOTION_DDOT = 0

CCSDS_OMM_VERS = 2.0
CREATION_DATE  = 
ORIGINATOR     = 

OBJECT_NAME    = STARLINK-36837
OBJECT_ID      = 2026-034J
CENTER_NAME    = EARTH
REF_FRAME      = TEME
TIME_SYSTEM    = UTC
MEAN_ELEMENT_THEORY = SGP/SGP4

EPOCH          = 2026-03-12T19:45:39.827232
MEAN_MOTION    = 15.80987693
ECCENTRICITY   = .00009134
INCLINATION    = 53.1585
RA_OF_ASC_NODE = 195.5819
ARG_OF_PERICENTER = 52.3564
MEAN_ANOMALY   = 307.7542

EPHEMERIS_TYPE = 0
CLASSIFICATION_TYPE = U
NORAD_CAT_ID   = 67858
ELEMENT_SET_NO = 999
REV_AT_EPOCH   = 443
BSTAR          = .12442078E-2
MEAN_MOTION_DOT = .253552E-2
MEAN_MOTION_DDOT = 0

CCSDS_OMM_VERS = 2.0
CREATION_DATE  = 
ORIGINATOR     = 

OBJECT_NAME    = STARLINK-36393
OBJECT_ID      = 2026-034K
CENTER_NAME    = EARTH
REF_FRAME      = TEME
TIME_SYSTEM    = UTC
MEAN_ELEMENT_THEORY = SGP/SGP4

EPOCH          = 2026-03-12T22:46:40.130112
MEAN_MOTION    = 15.80881068
ECCENTRICITY   = .00031619
INCLINATION    = 53.1587
RA_OF_ASC_NODE = 194.9434
ARG_OF_PERICENTER = 34.6774
MEAN_ANOMALY   = 325.4455

EPHEMERIS_TYPE = 0
CLASSIFICATION_TYPE = U
NORAD_CAT_ID   = 67859
ELEMENT_SET_NO = 999
REV_AT_EPOCH   = 445
BSTAR          = .32414071E-3
MEAN_MOTION_DOT = .63786E-3
MEAN_MOTION_DDOT = 0

CCSDS_OMM_VERS = 2.0
CREATION_DATE  = 
ORIGINATOR     = 

OBJECT_NAME    = STARLINK-35873
OBJECT_ID      = 2026-034L
CENTER_NAME    = EARTH
REF_FRAME      = TEME
TIME_SYSTEM    = UTC
MEAN_ELEMENT_THEORY = SGP/SGP4

EPOCH          = 2026-03-12T22:45:34.365888
MEAN_MOTION    = 15.81004240
ECCENTRICITY   = .00009351
INCLINATION    = 53.1584
RA_OF_ASC_NODE = 194.9378
ARG_OF_PERICENTER = 69.8378
MEAN_ANOMALY   = 290.2746

EPHEMERIS_TYPE = 0
CLASSIFICATION_TYPE = U
NORAD_CAT_ID   = 67860
ELEMENT_SET_NO = 999
REV_AT_EPOCH   = 448
BSTAR          = .14634682E-2
MEAN_MOTION_DOT = .300225E-2
MEAN_MOTION_DDOT = 0

